{
  "type": "FeatureCollection",
  "features": [
    {
      "type": "Feature",
      "properties": {
        "norad_id": 50032,
        "name": "COSMOS 1408 DEB",
        "group": "cosmos-1408-debris",
        "lat": 75.8802478006412,
        "lon": -164.6487439628311,
        "alt_km": 416.9176283658617,
        "timestamp": "2025-12-24T07:45:06.470129+00:00",
        "meta_object_name": "COSMOS 1408 DEB",
        "meta_object_id": "1982-092RU",
        "meta_epoch": "2025-12-23T04:54:00.638784",
        "meta_mean_motion": 15.45793948,
        "meta_eccentricity": 0.00163136,
        "meta_inclination": 82.563,
        "meta_ra_of_asc_node": 47.7829,
        "meta_arg_of_pericenter": 169.8241,
        "meta_mean_anomaly": 190.3342,
        "meta_ephemeris_type": 0,
        "meta_classification_type": "U",
        "meta_norad_cat_id": 50032,
        "meta_element_set_no": 999,
        "meta_rev_at_epoch": 22765,
        "meta_bstar": 0.00010744328,
        "meta_mean_motion_dot": 5.269e-05,
        "meta_mean_motion_ddot": 0,
        "tle_line1": "1 50032U 82092RU  25357.20417406  .00005269  00000+0  10744-3 0  9997",
        "tle_line2": "2 50032  82.5630  47.7829 0016313 169.8241 190.3342 15.45793948227657"
      },
      "geometry": {
        "type": "Point",
        "coordinates": [
          -164.6487439628311,
          75.8802478006412
        ]
      }
    },
    {
      "type": "Feature",
      "properties": {
        "norad_id": 50058,
        "name": "COSMOS 1408 DEB",
        "group": "cosmos-1408-debris",
        "lat": 1.9444679244709444,
        "lon": 57.46512647828766,
        "alt_km": 370.9049058731871,
        "timestamp": "2025-12-24T07:45:06.470150+00:00",
        "meta_object_name": "COSMOS 1408 DEB",
        "meta_object_id": "1982-092SW",
        "meta_epoch": "2025-12-23T04:07:00.859872",
        "meta_mean_motion": 15.64713,
        "meta_eccentricity": 0.00159845,
        "meta_inclination": 82.6118,
        "meta_ra_of_asc_node": 58.4192,
        "meta_arg_of_pericenter": 63.7743,
        "meta_mean_anomaly": 296.5157,
        "meta_ephemeris_type": 0,
        "meta_classification_type": "U",
        "meta_norad_cat_id": 50058,
        "meta_element_set_no": 999,
        "meta_rev_at_epoch": 22967,
        "meta_bstar": 0.00034025417,
        "meta_mean_motion_dot": 0.00033308,
        "meta_mean_motion_ddot": 0,
        "tle_line1": "1 50058U 82092SW  25357.17153773  .00033308  00000+0  34025-3 0  9998",
        "tle_line2": "2 50058  82.6118  58.4192 0015984  63.7743 296.5157 15.64713000229670"
      },
      "geometry": {
        "type": "Point",
        "coordinates": [
          57.46512647828766,
          1.9444679244709444
        ]
      }
    },
    {
      "type": "Feature",
      "properties": {
        "norad_id": 50404,
        "name": "COSMOS 1408 DEB",
        "group": "cosmos-1408-debris",
        "lat": -21.65771737173396,
        "lon": 26.27832747217749,
        "alt_km": 438.8230101641393,
        "timestamp": "2025-12-24T07:45:06.470163+00:00",
        "meta_object_name": "COSMOS 1408 DEB",
        "meta_object_id": "1982-092ADS",
        "meta_epoch": "2025-12-23T00:45:48.911904",
        "meta_mean_motion": 15.15350794,
        "meta_eccentricity": 0.01677821,
        "meta_inclination": 82.2023,
        "meta_ra_of_asc_node": 204.4845,
        "meta_arg_of_pericenter": 163.5527,
        "meta_mean_anomaly": 197.1246,
        "meta_ephemeris_type": 0,
        "meta_classification_type": "U",
        "meta_norad_cat_id": 50404,
        "meta_element_set_no": 999,
        "meta_rev_at_epoch": 21349,
        "meta_bstar": 0.0032418287,
        "meta_mean_motion_dot": 0.00088331,
        "meta_mean_motion_ddot": 0,
        "tle_line1": "1 50404U 82092ADS 25357.03181611  .00088331  00000+0  32418-2 0  9999",
        "tle_line2": "2 50404  82.2023 204.4845 0167782 163.5527 197.1246 15.15350794213498"
      },
      "geometry": {
        "type": "Point",
        "coordinates": [
          26.27832747217749,
          -21.65771737173396
        ]
      }
    },
    {
      "type": "Feature",
      "properties": {
        "norad_id": 50621,
        "name": "COSMOS 1408 DEB",
        "group": "cosmos-1408-debris",
        "lat": 65.34127324705412,
        "lon": 78.63524603284166,
        "alt_km": 375.16364427654844,
        "timestamp": "2025-12-24T07:45:06.470175+00:00",
        "meta_object_name": "COSMOS 1408 DEB",
        "meta_object_id": "1982-092ALR",
        "meta_epoch": "2025-12-23T14:30:12.364992",
        "meta_mean_motion": 15.57201045,
        "meta_eccentricity": 0.00290955,
        "meta_inclination": 82.5688,
        "meta_ra_of_asc_node": 62.8659,
        "meta_arg_of_pericenter": 113.3373,
        "meta_mean_anomaly": 247.0948,
        "meta_ephemeris_type": 0,
        "meta_classification_type": "U",
        "meta_norad_cat_id": 50621,
        "meta_element_set_no": 999,
        "meta_rev_at_epoch": 22419,
        "meta_bstar": 0.00035622213,
        "meta_mean_motion_dot": 0.00026487,
        "meta_mean_motion_ddot": 0,
        "tle_line1": "1 50621U 82092ALR 25357.60430978  .00026487  00000+0  35622-3 0  9991",
        "tle_line2": "2 50621  82.5688  62.8659 0029095 113.3373 247.0948 15.57201045224197"
      },
      "geometry": {
        "type": "Point",
        "coordinates": [
          78.63524603284166,
          65.34127324705412
        ]
      }
    }
  ]
}